MEAN_MOTION;ECCENTRICITY;INCLINATION;RA_OF_ASC_NODE;ARG_OF_PERICENTER;MEAN_ANOMALY;BSTAR;MEAN_MOTION_DOT;MEAN_MOTION_DDOT;TYPE
14.34220537;0.0003218;86.3961;52.6795;78.3586;281.7971;2.7751E-5;9.8E-7;0;Iridium
14.34220585;0.0003202;86.3962;52.4461;77.6912;282.4642;2.5776E-5;9.2E-7;0;Iridium
14.34220604;0.0003202;86.3962;52.4169;77.5916;282.5638;2.6188E-5;9.3E-7;0;Iridium
14.34220658;0.0003196;86.3963;52.2419;77.2704;282.8849;2.5201E-5;9.0E-7;0;Iridium
14.34220694;0.0003182;86.3964;52.0377;76.6839;283.4711;2.3575E-5;8.6E-7;0;Iridium
14.34220761;0.0003176;86.3965;51.8335;76.3394;283.8155;2.2342E-5;8.2E-7;0;Iridium
14.34220814;0.0003166;86.3966;51.6002;75.4319;284.7228;2.0479E-5;7.7E-7;0;Iridium
14.34220814;0.0003166;86.3966;51.6002;75.4319;284.7228;2.0479E-5;7.7E-7;0;Iridium
14.34220927;0.0003137;86.3968;51.1919;74.4034;285.7508;1.8097E-5;7.0E-7;0;Iridium
14.3422105;0.0003103;86.3969;50.7835;73.3388;286.8148;1.7493E-5;6.9E-7;0;Iridium
14.34212925;0.0003317;86.397;50.3753;71.1223;289.0332;1.6634E-5;6.6E-7;0;Iridium
14.34215265;0.0003075;86.3971;50.1709;72.1097;288.0434;1.6266E-5;6.5E-7;0;Iridium
14.34215482;0.0003061;86.3972;49.9669;71.9419;288.211;3.319E-5;1.13E-6;0;Iridium
14.34215632;0.0003044;86.3973;49.7336;70.9362;289.2163;3.8409E-5;1.27E-6;0;Iridium
14.34215657;0.0003;86.3974;49.3252;70.0888;290.0631;2.3474E-5;8.6E-7;0;Iridium
14.34215782;0.000298;86.3976;49.0628;69.4859;290.6656;2.7376E-5;9.6E-7;0;Iridium
14.34215813;0.0002971;86.3976;48.9462;69.153;290.9984;2.6384E-5;9.4E-7;0;Iridium
14.34215892;0.0002943;86.3978;48.6546;68.531;291.6199;2.6302E-5;9.3E-7;0;Iridium
14.34215932;0.0002926;86.3978;48.4796;68.0793;292.0713;2.5168E-5;9.0E-7;0;Iridium
14.34216012;0.0002901;86.3979;48.2463;67.5635;292.5868;2.695E-5;9.5E-7;0;Iridium
14.34216044;0.0002883;86.398;48.0714;67.1644;292.9856;2.4775E-5;8.9E-7;0;Iridium
14.34216118;0.0002854;86.3981;47.809;66.5507;293.5989;2.5042E-5;9.0E-7;0;Iridium
14.34216122;0.0002839;86.3981;47.6632;66.2885;293.8608;2.1879E-5;8.1E-7;0;Iridium
14.3421615;0.0002813;86.3982;47.4008;65.7244;294.4246;1.9751E-5;7.5E-7;0;Iridium
14.34216157;0.0002796;86.3983;47.2259;65.3357;294.813;1.6647E-5;6.6E-7;0;Iridium
14.34216245;0.0002776;86.3984;46.9927;64.7474;295.4009;1.8657E-5;7.2E-7;0;Iridium
14.3421625;0.0002775;86.3984;46.9635;64.7148;295.4335;1.8692E-5;7.2E-7;0;Iridium
14.342163;0.0002758;86.3985;46.8178;64.3932;295.7548;1.8505E-5;7.2E-7;0;Iridium
14.34216362;0.0002732;86.3986;46.6137;63.8498;296.2979;1.93E-5;7.4E-7;0;Iridium
14.342164;0.0002708;86.3986;46.4097;63.3847;296.7626;1.7144E-5;6.8E-7;0;Iridium
14.34216542;0.0002674;86.3987;46.1473;62.9347;297.2121;2.0494E-5;7.7E-7;0;Iridium
14.3421656;0.0002658;86.3988;45.9724;62.4855;297.6611;1.8097E-5;7.0E-7;0;Iridium
14.34216661;0.0002628;86.3989;45.7392;62.2353;297.9109;1.9843E-5;7.5E-7;0;Iridium
14.34216724;0.0002607;86.399;45.5644;61.8888;298.2571;1.9878E-5;7.5E-7;0;Iridium
14.34216776;0.0002578;86.3991;45.302;61.4398;298.7057;1.8743E-5;7.2E-7;0;Iridium
14.34216746;0.0002562;86.3992;45.1563;61.101;299.0443;1.3337E-5;5.7E-7;0;Iridium
14.34216821;0.0002528;86.3993;44.894;60.7465;299.3983;1.428E-5;6.0E-7;0;Iridium
14.34216851;0.000251;86.3994;44.7191;60.4336;299.711;1.3744E-5;5.8E-7;0;Iridium
14.34216878;0.000248;86.3995;44.4569;59.8889;300.2553;1.2694E-5;5.5E-7;0;Iridium
14.3421692;0.000246;86.3996;44.3112;59.627;300.5168;1.2814E-5;5.6E-7;0;Iridium
14.34217001;0.000243;86.3997;44.078;59.241;300.9025;1.5554E-5;6.3E-7;0;Iridium
14.34216994;0.0002427;86.3997;44.0489;59.2001;300.9434;1.5523E-5;6.3E-7;0;Iridium
14.34217048;0.0002406;86.3997;43.9032;58.945;301.1981;1.6509E-5;6.6E-7;0;Iridium
14.34217186;0.0002374;86.3998;43.6409;58.5216;301.6211;2.2012E-5;8.1E-7;0;Iridium
14.34217196;0.0002371;86.3998;43.6117;58.4536;301.6891;2.2485E-5;8.3E-7;0;Iridium
14.34217226;0.0002351;86.3999;43.4952;58.3722;301.7703;2.1679E-5;8.0E-7;0;Iridium
14.34217279;0.0002336;86.3999;43.4077;58.3532;301.7891;2.4827E-5;8.9E-7;0;Iridium
14.34217354;0.000229;86.4;43.0581;57.8936;302.2481;2.3358E-5;8.5E-7;0;Iridium
14.3421742;0.0002271;86.4;42.9415;57.8378;302.3038;2.7297E-5;9.6E-7;0;Iridium
14.34217445;0.0002262;86.4;42.8832;57.6736;302.4679;2.7072E-5;9.6E-7;0;Iridium
14.34217481;0.000223;86.4001;42.6501;57.4216;302.7195;2.3846E-5;8.7E-7;0;Iridium
14.34217566;0.0002196;86.4001;42.4461;57.1595;302.9812;2.6101E-5;9.3E-7;0;Iridium
14.34217566;0.0002196;86.4001;42.4461;57.1595;302.9812;2.6101E-5;9.3E-7;0;Iridium
14.34217605;0.000217;86.4002;42.2422;56.8817;303.2587;2.4331E-5;8.8E-7;0;Iridium
14.3421767;0.0002135;86.4002;42.0382;56.5713;303.5687;2.4955E-5;9.0E-7;0;Iridium
14.34217746;0.0002096;86.4003;41.8051;56.5168;303.6228;2.4982E-5;9.0E-7;0;Iridium
14.3421786;0.0002071;86.4004;41.6303;56.115;304.0243;2.7653E-5;9.7E-7;0;Iridium
14.34217938;0.0002035;86.4004;41.3972;56.1544;303.9845;2.6872E-5;9.5E-7;0;Iridium
14.34218019;0.0002005;86.4005;41.2224;56.0045;304.1341;2.7789E-5;9.8E-7;0;Iridium
14.34218101;0.0001972;86.4005;40.9893;55.8793;304.259;2.6631E-5;9.4E-7;0;Iridium
14.34218183;0.0001938;86.4006;40.7854;55.6258;304.5121;2.6326E-5;9.3E-7;0;Iridium
14.34218183;0.0001938;86.4006;40.7854;55.6258;304.5121;2.6326E-5;9.3E-7;0;Iridium
14.34218216;0.0001906;86.4007;40.5815;55.8097;304.3279;2.3612E-5;8.6E-7;0;Iridium
14.34218334;0.0001873;86.4007;40.3775;55.9478;304.1896;2.474E-5;8.9E-7;0;Iridium
14.3421841;0.0001841;86.4008;40.1445;56.1188;304.0183;2.3595E-5;8.6E-7;0;Iridium
14.34218457;0.0001813;86.4008;39.9697;56.14;303.9968;2.2177E-5;8.2E-7;0;Iridium
14.34218487;0.0001786;86.4008;39.7366;56.1055;304.031;1.8906E-5;7.3E-7;0;Iridium
14.34218563;0.0001755;86.4009;39.5617;56.4365;303.6999;1.9735E-5;7.5E-7;0;Iridium
14.34218593;0.0001722;86.4009;39.3287;56.7808;303.3552;1.7224E-5;6.8E-7;0;Iridium
14.34218741;0.0001669;86.4011;38.9208;57.3162;302.8195;1.7781E-5;7.0E-7;0;Iridium
14.34218907;0.0001611;86.4011;38.513;58.4404;301.6949;2.0888E-5;7.8E-7;0;Iridium
14.34219002;0.0001582;86.4011;38.309;58.3071;301.8278;2.3923E-5;8.7E-7;0;Iridium
14.34219045;0.0001555;86.4011;38.076;58.6346;301.5002;2.2909E-5;8.4E-7;0;Iridium
14.34219089;0.0001524;86.4012;37.872;58.7652;301.3693;2.3728E-5;8.6E-7;0;Iridium
14.34219089;0.0001524;86.4012;37.872;58.7652;301.3693;2.3728E-5;8.6E-7;0;Iridium
14.34219105;0.0001501;86.4012;37.6681;59.3243;300.81;2.2078E-5;8.2E-7;0;Iridium
14.34219194;0.000147;86.4013;37.4641;60.0154;300.1187;2.4306E-5;8.8E-7;0;Iridium
14.34219227;0.0001439;86.4013;37.2312;61.0917;299.0423;2.3319E-5;8.5E-7;0;Iridium
14.34219309;0.0001414;86.4013;37.0272;61.3856;298.7481;2.4698E-5;8.9E-7;0;Iridium
14.3421934;0.0001399;86.4013;36.8816;61.8432;298.2905;2.4352E-5;8.8E-7;0;Iridium
14.34219346;0.0001393;86.4013;36.8233;62.1335;298.0002;2.3586E-5;8.6E-7;0;Iridium
14.34219471;0.0001369;86.4013;36.5903;62.2343;297.8991;2.6494E-5;9.4E-7;0;Iridium
14.34219471;0.0001369;86.4013;36.5903;62.2343;297.8991;2.6494E-5;9.4E-7;0;Iridium
14.34219538;0.000135;86.4013;36.4155;63.062;297.0714;2.649E-5;9.4E-7;0;Iridium
14.34219631;0.0001317;86.4014;36.1242;63.8902;296.243;2.6806E-5;9.5E-7;0;Iridium
14.34219817;0.0001274;86.4014;35.8038;65.7566;294.3762;2.8611E-5;1.0E-6;0;Iridium
14.34219889;0.0001255;86.4013;35.5708;66.9853;293.1475;2.7163E-5;9.6E-7;0;Iridium
14.34220018;0.0001224;86.4014;35.2213;69.2693;290.8634;2.6328E-5;9.3E-7;0;Iridium
14.34220023;0.0001223;86.4013;35.163;69.7265;290.4062;2.5048E-5;9.0E-7;0;Iridium
14.34216544;0.0001507;86.4006;34.8732;72.4156;287.7204;2.3156E-5;8.5E-7;0;Iridium
14.34215731;0.0001289;86.4014;34.7556;71.3163;288.8173;2.2031E-5;8.1E-7;0;Iridium
14.34215411;0.0001228;86.4015;34.5515;74.6705;285.4627;2.1532E-5;8.0E-7;0;Iridium
14.34215546;0.000121;86.4016;34.3184;74.2375;285.8954;2.234E-5;8.2E-7;0;Iridium
14.34215576;0.000121;86.4015;34.0562;75.4561;284.6769;1.3284E-5;5.7E-7;0;Iridium
14.34215608;0.0001201;86.4016;33.9688;76.1431;283.9899;1.3936E-5;5.9E-7;0;Iridium
14.3421568;0.0001199;86.4016;33.8814;76.9999;283.1331;2.0966E-5;7.8E-7;0;Iridium
14.34215768;0.0001185;86.4015;33.6193;78.5545;281.5784;2.2215E-5;8.2E-7;0;Iridium
14.34215838;0.0001177;86.4015;33.4445;79.8935;280.2393;2.3254E-5;8.5E-7;0;Iridium
14.34215855;0.0001171;86.4015;33.2114;81.4505;278.6823;1.9627E-5;7.5E-7;0;Iridium
14.34215916;0.0001163;86.4016;33.0367;82.7416;277.3912;2.0262E-5;7.7E-7;0;Iridium
14.34216007;0.0001158;86.4015;32.8036;84.7849;275.3479;2.249E-5;8.3E-7;0;Iridium
14.34216025;0.0001156;86.4015;32.6288;85.9876;274.1452;2.0377E-5;7.7E-7;0;Iridium
14.34216087;0.0001158;86.4015;32.3667;87.844;272.2888;2.126E-5;7.9E-7;0;Iridium
14.34216087;0.0001158;86.4015;32.3667;87.844;272.2888;2.126E-5;7.9E-7;0;Iridium
14.34216083;0.0001158;86.4015;32.3375;87.9408;272.1921;2.0429E-5;7.7E-7;0;Iridium
14.34216149;0.0001168;86.4015;32.1919;89.0068;271.1261;2.3913E-5;8.7E-7;0;Iridium
14.34216212;0.0001172;86.4014;31.9297;90.5544;269.5786;2.3516E-5;8.6E-7;0;Iridium
14.34216212;0.0001172;86.4014;31.9297;90.5544;269.5786;2.3516E-5;8.6E-7;0;Iridium
14.34216282;0.0001176;86.4014;31.8132;91.4854;268.6476;2.5722E-5;9.2E-7;0;Iridium
14.3421647;0.0001189;86.4013;31.4636;93.9194;266.2138;3.0524E-5;1.05E-6;0;Iridium
14.34216497;0.0001192;86.4014;31.3762;94.4925;265.6407;3.055E-5;1.05E-6;0;Iridium
14.3421657;0.0001208;86.4013;31.1141;96.1286;264.0048;2.8826E-5;1.0E-6;0;Iridium
14.34216697;0.0001218;86.4013;30.9393;97.5749;262.5585;3.3867E-5;1.15E-6;0;Iridium
14.34216772;0.0001221;86.4012;30.8228;98.2811;261.8524;3.4307E-5;1.16E-6;0;Iridium
14.34216882;0.0001238;86.4012;30.5897;99.5703;260.5633;3.4956E-5;1.18E-6;0;Iridium
14.34216933;0.0001245;86.4012;30.4149;100.4874;259.6462;3.2905E-5;1.12E-6;0;Iridium
14.34217068;0.0001271;86.4011;29.978;102.979;257.1548;2.8558E-5;1.0E-6;0;Iridium
14.34217068;0.0001271;86.4011;29.978;102.979;257.1548;2.8558E-5;1.0E-6;0;Iridium
14.34217135;0.0001286;86.401;29.8032;103.9462;256.1877;2.8092E-5;9.8E-7;0;Iridium
14.34217201;0.0001304;86.401;29.5701;105.046;255.088;2.576E-5;9.2E-7;0;Iridium
14.34217244;0.000133;86.401;29.337;106.1133;254.0209;2.2623E-5;8.3E-7;0;Iridium
